NORAD_CAT_ID,OBJECT_NAME,OBJECT_TYPE,EPOCH,MEAN_MOTION,ECCENTRICITY,INCLINATION,RA_OF_ASC_NODE,ARG_OF_PERICENTER,MEAN_ANOMALY,BSTAR,MEAN_MOTION_DOT,MEAN_MOTION_DDOT,TLE_LINE0,TLE_LINE1,TLE_LINE2,SEMIMAJOR_AXIS,PERIOD,APOGEE,PERIGEE,DECAYED
52697.0,STARLINK-4018,PAYLOAD,2023-07-29 17:26:57,15.08826214,9.77e-05,53.2173,111.6294,72.8368,287.2731,0.00017234,2.455e-05,0.0,0 STARLINK-4018,1 52697U 22053AT  23210.72705884  .00002455  00000-0  17234-3 0  9996,2 52697  53.2173 111.6294 0000977  72.8368 287.2731 15.08826214 66664,6917.923,95.438,540.463,539.112,0.0
52697.0,STARLINK-4018,PAYLOAD,2023-07-29 23:48:30,15.08837818,0.0001335,53.2179,110.4409,65.4978,294.6153,0.00021913,3.201e-05,0.0,0 STARLINK-4018,1 52697U 22053AT  23210.99201679  .00003201  00000-0  21913-3 0  9997,2 52697  53.2179 110.4409 0001335  65.4978 294.6153 15.08837818 66706,6917.887,95.438,540.676,538.829,0.0
52697.0,STARLINK-4018,PAYLOAD,2023-07-31 17:08:32,15.08827795,0.0001183,53.2166,102.7059,98.4543,261.6583,0.00011062,1.473e-05,0.0,0 STARLINK-4018,1 52697U 22053AT  23212.71426151  .00001473  00000-0  11062-3 0  9996,2 52697  53.2166 102.7059 0001183  98.4543 261.6583 15.08827795 66964,6917.918,95.438,540.601,538.964,0.0
52697.0,STARLINK-4018,PAYLOAD,2023-07-31 23:30:06,15.08773898,0.0001487,53.2174,101.5165,98.1582,261.9579,0.00069209,0.00010724,0.0,0 STARLINK-4018,1 52697U 22053AT  23212.97924140  .00010724  00000-0  69209-3 0  9990,2 52697  53.2174 101.5165 0001487  98.1582 261.9579 15.08773898 67003,6918.082,95.442,540.976,538.919,0.0
52697.0,STARLINK-4018,PAYLOAD,2023-08-01 15:23:56,15.08835587,0.0001166,53.2178,98.5415,98.9702,261.1423,7.578e-05,9.18e-06,0.0,0 STARLINK-4018,1 52697U 22053AT  23213.64162046  .00000918  00000-0  75780-4 0  9990,2 52697  53.2178  98.5415 0001166  98.9702 261.1423 15.08835587 67101,6917.894,95.438,540.566,538.952,0.0
52697.0,STARLINK-4018,PAYLOAD,2023-08-01 23:20:50,15.08851549,0.0001208,53.2177,97.055,98.4951,261.6178,0.00013903,1.926e-05,0.0,0 STARLINK-4018,1 52697U 22053AT  23213.97280879  .00001926  00000-0  13903-3 0  9999,2 52697  53.2177  97.0550 0001208  98.4951 261.6178 15.08851549 67155,6917.845,95.437,540.546,538.874,0.0
52697.0,STARLINK-4018,PAYLOAD,2023-08-02 08:53:10,15.08841391,0.0001244,53.2175,95.2731,89.705,270.4085,0.00013726,1.897e-05,0.0,0 STARLINK-4018,1 52697U 22053AT  23214.37025569  .00001897  00000-0  13726-3 0  9997,2 52697  53.2175  95.2731 0001244  89.7050 270.4085 15.08841391 67213,6917.876,95.437,540.602,538.881,0.0
52697.0,STARLINK-4018,PAYLOAD,2023-08-03 02:22:24,15.08847057,0.0001295,53.2176,92.0018,83.8412,276.2728,0.00028002,4.172e-05,0.0,0 STARLINK-4018,1 52697U 22053AT  23215.09888993  .00004172  00000-0  28002-3 0  9997,2 52697  53.2176  92.0018 0001295  83.8412 276.2728 15.08847057 67325,6917.859,95.437,540.62,538.828,0.0
52697.0,STARLINK-4018,PAYLOAD,2023-08-04 00:37:49,15.08837348,0.0001181,53.2171,87.8392,101.9772,258.1353,-4.9436e-05,-1.074e-05,0.0,0 STARLINK-4018,1 52697U 22053AT  23216.02626494 -.00001074  00000-0 -49436-4 0  9992,2 52697  53.2171  87.8392 0001181 101.9772 258.1353 15.08837348 67462,6917.888,95.438,540.57,538.936,0.0
52697.0,STARLINK-4018,PAYLOAD,2023-08-04 22:53:12,15.08849462,0.0001069,53.217,83.676,104.7789,255.3321,6.7308e-05,7.84e-06,0.0,0 STARLINK-4018,1 52697U 22053AT  23216.95361581  .00000784  00000-0  67308-4 0  9990,2 52697  53.2170  83.6760 0001069 104.7789 255.3321 15.08849462 67608,6917.851,95.437,540.456,538.977,0.0
52697.0,STARLINK-4018,PAYLOAD,2023-08-05 10:00:56,15.08783106,0.0001644,53.2175,81.5936,123.9798,236.1351,0.001173,0.00018401,0.0,0 STARLINK-4018,1 52697U 22053AT  23217.41732580  .00018401  00000-0  11730-2 0  9994,2 52697  53.2175  81.5936 0001644 123.9798 236.1351 15.08783106 67676,6918.054,95.441,541.057,538.782,0.0
52697.0,STARLINK-4018,PAYLOAD,2023-08-05 17:57:50,15.08847669,0.0001106,53.2164,80.1074,83.6037,276.5081,0.00028868,4.31e-05,0.0,0 STARLINK-4018,1 52697U 22053AT  23217.74849821  .00004310  00000-0  28868-3 0  9992,2 52697  53.2164  80.1074 0001106  83.6037 276.5081 15.08847669 67722,6917.857,95.437,540.487,538.957,0.0
52697.0,STARLINK-4018,PAYLOAD,2023-08-06 00:19:22,15.08860833,0.0001155,53.2164,78.9177,77.6466,282.4655,0.0004583,7.018e-05,0.0,0 STARLINK-4018,1 52697U 22053AT  23218.01345131  .00007018  00000-0  45830-3 0  9994,2 52697  53.2164  78.9177 0001155  77.6466 282.4655 15.08860833 67769,6917.817,95.436,540.481,538.883,0.0
52697.0,STARLINK-4018,PAYLOAD,2023-08-06 17:48:38,15.0883554,0.0002408,53.2194,75.6365,69.5342,290.5909,-7.3341e-05,-1.455e-05,0.0,0 STARLINK-4018,1 52697U 22053AT  23218.74210721 -.00001455  00000-0 -73341-4 0  9990,2 52697  53.2194  75.6365 0002408  69.5342 290.5909 15.08835540 67871,6917.894,95.438,541.425,538.093,0.0
52697.0,STARLINK-4018,PAYLOAD,2023-08-07 20:50:10,15.08850794,0.0001022,53.2168,70.5913,86.0808,274.0301,0.00032615,4.908e-05,0.0,0 STARLINK-4018,1 52697U 22053AT  23219.86817957  .00004908  00000-0  32615-3 0  9990,2 52697  53.2168  70.5913 0001022  86.0808 274.0301 15.08850794 68048,6917.847,95.437,540.419,539.005,0.0
52697.0,STARLINK-4018,PAYLOAD,2023-08-08 20:40:57,15.08849439,9.28e-05,53.2172,66.1307,91.4201,268.6897,0.00033943,5.12e-05,0.0,0 STARLINK-4018,1 52697U 22053AT  23220.86178073  .00005120  00000-0  33943-3 0  9993,2 52697  53.2172  66.1307 0000928  91.4201 268.6897 15.08849439 68191,6917.852,95.437,540.359,539.075,0.0
52697.0,STARLINK-4018,PAYLOAD,2023-08-09 09:24:03,15.08838591,0.0001205,53.2168,63.7528,96.2154,263.8975,-3.1899e-05,-7.95e-06,0.0,0 STARLINK-4018,1 52697U 22053AT  23221.39170209 -.00000795  00000-0 -31899-4 0  9999,2 52697  53.2168  63.7528 0001205  96.2154 263.8975 15.08838591 68273,6917.885,95.438,540.583,538.916,0.0
52697.0,STARLINK-4018,PAYLOAD,2023-08-10 14:00:59,15.08845047,0.0001098,53.217,58.4007,94.8152,265.2966,-0.00010934,-2.028e-05,0.0,0 STARLINK-4018,1 52697U 22053AT  23222.58402471 -.00002028  00000-0 -10934-3 0  9997,2 52697  53.2170  58.4007 0001098  94.8152 265.2966 15.08845047 68451,6917.865,95.437,540.49,538.97,0.0
52697.0,STARLINK-4018,PAYLOAD,2023-08-11 18:37:56,15.08841965,0.0001068,53.2162,53.0473,90.0256,270.0858,0.00017314,2.469e-05,0.0,0 STARLINK-4018,1 52697U 22053AT  23223.77634686  .00002469  00000-0  17314-3 0  9990,2 52697  53.2162  53.0473 0001068  90.0256 270.0858 15.08841965 68639,6917.874,95.437,540.478,539.001,0.0
52697.0,STARLINK-4018,PAYLOAD,2023-08-12 18:28:43,15.08839915,9.97e-05,53.2156,48.5887,82.8524,277.2582,7.0229e-05,8.3e-06,0.0,0 STARLINK-4018,1 52697U 22053AT  23224.76994871  .00000830  00000-0  70229-4 0  9990,2 52697  53.2156  48.5887 0000997  82.8524 277.2582 15.08839915 68788,6917.881,95.438,540.435,539.056,0.0
52697.0,STARLINK-4018,PAYLOAD,2023-08-14 05:27:12,15.08845065,9.77e-05,53.2163,42.0458,76.3571,283.753,0.00016199,2.292e-05,0.0,0 STARLINK-4018,1 52697U 22053AT  23226.22722949  .00002292  00000-0  16199-3 0  9997,2 52697  53.2163  42.0458 0000977  76.3571 283.7530 15.08845065 69001,6917.865,95.437,540.406,539.054,0.0
52697.0,STARLINK-4018,PAYLOAD,2023-08-15 18:01:04,15.0884564,9.14e-05,53.2176,35.2037,88.0205,272.0892,0.00021022,3.06e-05,0.0,0 STARLINK-4018,1 52697U 22053AT  23227.75074782  .00003060  00000-0  21022-3 0  9996,2 52697  53.2176  35.2037 0000914  88.0205 272.0892 15.08845640 69233,6917.863,95.437,540.36,539.096,0.0
52697.0,STARLINK-4018,PAYLOAD,2023-08-16 17:51:51,15.08843634,0.0001017,53.2179,30.7451,85.3703,274.7405,7.9981e-05,9.85e-06,0.0,0 STARLINK-4018,1 52697U 22053AT  23228.74434890  .00000985  00000-0  79981-4 0  9997,2 52697  53.2179  30.7451 0001017  85.3703 274.7405 15.08843634 69380,6917.869,95.437,540.438,539.031,0.0
52697.0,STARLINK-4018,PAYLOAD,2023-08-18 04:50:20,15.08841502,0.0001068,53.2177,24.205,87.058,273.0534,2.182e-05,6e-07,0.0,0 STARLINK-4018,1 52697U 22053AT  23230.20162761  .00000060  00000-0  21820-4 0  9999,2 52697  53.2177  24.2050 0001068  87.0580 273.0534 15.08841502 69601,6917.876,95.437,540.48,539.002,0.0
52697.0,STARLINK-4018,PAYLOAD,2023-08-18 12:47:17,15.08827577,0.0001133,53.2172,22.7173,89.1594,270.9528,-2.2095e-05,-6.39e-06,0.0,0 STARLINK-4018,1 52697U 22053AT  23230.53284273 -.00000639  00000-0 -22095-4 0  9997,2 52697  53.2172  22.7173 0001133  89.1594 270.9528 15.08827577 69656,6917.918,95.438,540.567,539.0,0.0
52697.0,STARLINK-4018,PAYLOAD,2023-08-19 04:41:08,15.08836305,0.0001386,53.2169,19.7431,82.8365,277.2785,8.5167e-05,1.068e-05,0.0,0 STARLINK-4018,1 52697U 22053AT  23231.19523802  .00001068  00000-0  85167-4 0  9998,2 52697  53.2169  19.7431 0001386  82.8365 277.2785 15.08836305 69756,6917.892,95.438,540.716,538.798,0.0
52697.0,STARLINK-4018,PAYLOAD,2023-08-20 09:18:05,15.08836902,0.0001176,53.2179,14.3908,73.357,286.7551,0.00019821,2.868e-05,0.0,0 STARLINK-4018,1 52697U 22053AT  23232.38755984  .00002868  00000-0  19821-3 0  9990,2 52697  53.2179  14.3908 0001176  73.3570 286.7551 15.08836902 69936,6917.89,95.438,540.568,538.941,0.0
52697.0,STARLINK-4018,PAYLOAD,2023-08-20 17:15:00,15.0885393,0.00012,53.2174,12.9041,72.1834,287.9289,0.00037405,5.672e-05,0.0,0 STARLINK-4018,1 52697U 22053AT  23232.71875410  .00005672  00000-0  37405-3 0  9998,2 52697  53.2174  12.9041 0001200  72.1834 287.9289 15.08853930 69987,6917.838,95.437,540.533,538.873,0.0
52697.0,STARLINK-4018,PAYLOAD,2023-08-21 09:08:52,15.0884075,0.0001045,53.2174,9.9308,85.147,274.9641,0.00014067,1.952e-05,0.0,0 STARLINK-4018,1 52697U 22053AT  23233.38115936  .00001952  00000-0  14067-3 0  9998,2 52697  53.2174   9.9308 0001045  85.1470 274.9641 15.08840750 70083,6917.878,95.438,540.466,539.02,0.0
52697.0,STARLINK-4018,PAYLOAD,2023-08-22 12:10:25,15.08840833,0.0001322,53.218,4.8781,65.2539,294.8591,-8.2913e-06,-4.2e-06,0.0,0 STARLINK-4018,1 52697U 22053AT  23234.50724104 -.00000420  00000-0 -82913-5 0  9994,2 52697  53.2180   4.8781 0001322  65.2539 294.8591 15.08840833 70258,6917.878,95.438,540.657,538.828,0.0
